[{"OBJECT_NAME":"UHETSAT","OBJECT_ID":"2023-185E","EPOCH":"2026-03-09T22:39:26.455680","MEAN_MOTION":15.29797662,"ECCENTRICITY":0.00118435,"INCLINATION":97.3584,"RA_OF_ASC_NODE":137.3576,"ARG_OF_PERICENTER":307.7346,"MEAN_ANOMALY":52.2821,"EPHEMERIS_TYPE":0,"CLASSIFICATION_TYPE":"U","NORAD_CAT_ID":58466,"ELEMENT_SET_NO":999,"REV_AT_EPOCH":12611,"BSTAR":0.00030513019,"MEAN_MOTION_DOT":8.749e-5,"MEAN_MOTION_DDOT":0},{"OBJECT_NAME":"STARLINK-35926","OBJECT_ID":"2025-271AB","EPOCH":"2026-03-09T10:17:59.123328","MEAN_MOTION":15.30180363,"ECCENTRICITY":0.00011082,"INCLINATION":53.1576,"RA_OF_ASC_NODE":141.3613,"ARG_OF_PERICENTER":91.4584,"MEAN_ANOMALY":268.6543,"EPHEMERIS_TYPE":0,"CLASSIFICATION_TYPE":"U","NORAD_CAT_ID":66642,"ELEMENT_SET_NO":999,"REV_AT_EPOCH":1748,"BSTAR":0.00040891163,"MEAN_MOTION_DOT":0.00011764,"MEAN_MOTION_DDOT":0}]
